{
  "type": "FeatureCollection",
  "features": [
    {
      "type": "Feature",
      "id": "region-l2f-0001",
      "geometry": {
        "type": "Polygon",
        "coordinates": [
          [
            [
              -531.63,
              294.78
            ],
            [
              -526.11,
              291.76
            ],
            [
              -498.44,
              266.79
            ],
            [
              -479.67,
              251.95
            ],
            [
              -432.39,
              218.28
            ],
            [
              -367.36,
              182.11
            ],
            [
              -303.37,
              154.9
            ],
            [
              -289.85,
              150.24
            ],
            [
              -269.23,
              153.15
            ],
            [
              -255.71,
              163.99
            ],
            [
              -229.12,
              183.83
            ],
            [
              -213.41,
              194.86
            ],
            [
              -204.04,
              196.21
            ],
            [
              -193.06,
              192.62
            ],
            [
              -192,
              197.64
            ],
            [
              -167.53,
              190.44
            ],
            [
              -168.92,
              185.74
            ],
            [
              -165.42,
              185.08
            ],
            [
              -164.56,
              189.18
            ],
            [
              -160.39,
              188.25
            ],
            [
              -162.11,
              183.63
            ],
            [
              -145.84,
              180.19
            ],
            [
              -145.18,
              184.95
            ],
            [
              -118.54,
              180.94
            ],
            [
              -119.15,
              175.8
            ],
            [
              -113.25,
              174.9
            ],
            [
              -112.65,
              180.53
            ],
            [
              -102.15,
              178.65
            ],
            [
              -102.37,
              173.78
            ],
            [
              -98.81,
              173.66
            ],
            [
              -99.39,
              205.54
            ],
            [
              -89.79,
              205.75
            ],
            [
              -88.9,
              172.85
            ],
            [
              -74.48,
              172.5
            ],
            [
              -74.38,
              178.01
            ],
            [
              -45.81,
              178.62
            ],
            [
              -45.81,
              173.68
            ],
            [
              -39.83,
              173.93
            ],
            [
              -40.47,
              178.89
            ],
            [
              -29.28,
              180.13
            ],
            [
              -28.41,
              175.17
            ],
            [
              -17.09,
              176.28
            ],
            [
              -18.03,
              181.6
            ],
            [
              -6.94,
              183.25
            ],
            [
              -6.03,
              178.19
            ],
            [
              0.07,
              179.63
            ],
            [
              -1.11,
              184.92
            ],
            [
              26.03,
              190.72
            ],
            [
              27.07,
              185.59
            ],
            [
              40.17,
              189.18
            ],
            [
              32.23,
              221.13
            ],
            [
              42.11,
              223.58
            ],
            [
              49.79,
              192.24
            ],
            [
              55.15,
              194.19
            ],
            [
              53.58,
              198.58
            ],
            [
              63.83,
              202.34
            ],
            [
              65.5,
              197.51
            ],
            [
              70.19,
              199.39
            ],
            [
              67.91,
              204.11
            ],
            [
              92.97,
              215.1
            ],
            [
              95.25,
              210.34
            ],
            [
              110.46,
              217.78
            ],
            [
              108.02,
              221.83
            ],
            [
              111.73,
              223.78
            ],
            [
              113.78,
              219.52
            ],
            [
              116.86,
              221.53
            ],
            [
              114.28,
              225.58
            ],
            [
              135.92,
              238.85
            ],
            [
              139.04,
              234.5
            ],
            [
              146.71,
              239.52
            ],
            [
              151.33,
              241.03
            ],
            [
              156.06,
              241.33
            ],
            [
              160.21,
              240.63
            ],
            [
              176.79,
              233.73
            ],
            [
              214.11,
              217.81
            ],
            [
              222.82,
              214.56
            ],
            [
              230.56,
              213.89
            ],
            [
              240.61,
              215.8
            ],
            [
              247.11,
              219.29
            ],
            [
              253.37,
              223.47
            ],
            [
              306.68,
              262.74
            ],
            [
              324.93,
              277.42
            ],
            [
              351.19,
              301.75
            ],
            [
              388.35,
              341.89
            ],
            [
              410.57,
              369.33
            ],
            [
              425.05,
              389.17
            ],
            [
              438.81,
              410.02
            ],
            [
              445.82,
              415.62
            ],
            [
              452.32,
              417.5
            ],
            [
              459.33,
              417.46
            ],
            [
              467.57,
              413.74
            ],
            [
              473.69,
              407.05
            ],
            [
              508.19,
              362.58
            ],
            [
              523.71,
              339.21
            ],
            [
              525.6,
              332.24
            ],
            [
              525.14,
              325.14
            ],
            [
              522.22,
              319.14
            ],
            [
              517.98,
              314.3
            ],
            [
              511.41,
              310.85
            ],
            [
              505,
              309.12
            ],
            [
              465.12,
              295.05
            ],
            [
              430.7,
              279.54
            ],
            [
              390.56,
              259.72
            ],
            [
              364.18,
              244.04
            ],
            [
              329.59,
              220.9
            ],
            [
              289.78,
              189.88
            ],
            [
              245.4,
              149.65
            ],
            [
              213.8,
              114.15
            ],
            [
              201.85,
              101.33
            ],
            [
              192.19,
              85.67
            ],
            [
              182.92,
              65.05
            ],
            [
              154.64,
              57.64
            ],
            [
              59.43,
              8.81
            ],
            [
              -1.17,
              -14.61
            ],
            [
              -90.31,
              -3.19
            ],
            [
              -171.42,
              20
            ],
            [
              -201.31,
              26.43
            ],
            [
              -213.28,
              40.35
            ],
            [
              -229.93,
              54.21
            ],
            [
              -264.3,
              77.67
            ],
            [
              -314.01,
              107.14
            ],
            [
              -369.03,
              132.47
            ],
            [
              -402.21,
              144.61
            ],
            [
              -440.66,
              156.59
            ],
            [
              -478.91,
              166.15
            ],
            [
              -521.83,
              173.3
            ],
            [
              -556.01,
              177.11
            ],
            [
              -575.99,
              178.04
            ],
            [
              -582.68,
              181.01
            ],
            [
              -587.79,
              186.12
            ],
            [
              -591.04,
              191.51
            ],
            [
              -592.62,
              196.43
            ],
            [
              -591.87,
              201.82
            ],
            [
              -586.5,
              218.81
            ],
            [
              -569.24,
              260.67
            ],
            [
              -556.61,
              286.65
            ],
            [
              -552.57,
              291.35
            ],
            [
              -547.55,
              294.52
            ],
            [
              -542.39,
              295.71
            ],
            [
              -536.11,
              295.58
            ],
            [
              -531.63,
              294.78
            ]
          ]
        ]
      },
      "properties": {
        "level": "L2F",
        "zone": "landside",
        "verified": false,
        "kind": "walkable",
        "name": "",
        "nameEn": ""
      }
    },
    {
      "type": "Feature",
      "id": "region-l2f-0002",
      "geometry": {
        "type": "Polygon",
        "coordinates": [
          [
            [
              -201.31,
              26.43
            ],
            [
              -191.41,
              10.96
            ],
            [
              -183.84,
              -15.15
            ],
            [
              -180.83,
              -37.86
            ],
            [
              -186.06,
              -63.96
            ],
            [
              -203.81,
              -97.9
            ],
            [
              -237.61,
              -136.79
            ],
            [
              -266.45,
              -165.5
            ],
            [
              -290.34,
              -187.04
            ],
            [
              -342.42,
              -226.72
            ],
            [
              -397.23,
              -260.26
            ],
            [
              -459.36,
              -289.5
            ],
            [
              -511.04,
              -307.51
            ],
            [
              -519.01,
              -309.99
            ],
            [
              -525.01,
              -317.04
            ],
            [
              -528.53,
              -323.69
            ],
            [
              -529.97,
              -328.13
            ],
            [
              -528.53,
              -335.31
            ],
            [
              -523.44,
              -343.01
            ],
            [
              -476.2,
              -406.7
            ],
            [
              -468.63,
              -413.23
            ],
            [
              -460.53,
              -416.23
            ],
            [
              -451.4,
              -415.05
            ],
            [
              -445.66,
              -412.44
            ],
            [
              -441.87,
              -409.57
            ],
            [
              -414.72,
              -370.68
            ],
            [
              -386.4,
              -335.18
            ],
            [
              -352.33,
              -298.37
            ],
            [
              -299.74,
              -251.91
            ],
            [
              -247.53,
              -216.01
            ],
            [
              -188.27,
              -182.08
            ],
            [
              -140.5,
              -161.98
            ],
            [
              -115.71,
              -158.72
            ],
            [
              -98.48,
              -159.5
            ],
            [
              -84.51,
              -163.02
            ],
            [
              -68.98,
              -168.64
            ],
            [
              -52.67,
              -178.95
            ],
            [
              -40.79,
              -189.65
            ],
            [
              -27.35,
              -204.92
            ],
            [
              -14.95,
              -228.81
            ],
            [
              -1.63,
              -266.66
            ],
            [
              10.24,
              -309.6
            ],
            [
              19.51,
              -360.11
            ],
            [
              25.38,
              -411.01
            ],
            [
              26.95,
              -445.07
            ],
            [
              25.78,
              -498.59
            ],
            [
              20.16,
              -550.14
            ],
            [
              14.81,
              -580.81
            ],
            [
              9.98,
              -600.26
            ],
            [
              11.42,
              -610.83
            ],
            [
              17.94,
              -617.62
            ],
            [
              24.6,
              -622.32
            ],
            [
              37.78,
              -624.01
            ],
            [
              118.83,
              -613.05
            ],
            [
              130.19,
              -607.57
            ],
            [
              135.15,
              -597.39
            ],
            [
              135.54,
              -590.99
            ],
            [
              133.06,
              -582.9
            ],
            [
              111.66,
              -534.74
            ],
            [
              92.6,
              -485.27
            ],
            [
              81.51,
              -445.47
            ],
            [
              71.85,
              -399.52
            ],
            [
              64.93,
              -344.18
            ],
            [
              63.1,
              -284.8
            ],
            [
              66.24,
              -231.15
            ],
            [
              69.24,
              -205.31
            ],
            [
              76.02,
              -185.08
            ],
            [
              86.86,
              -166.29
            ],
            [
              104.22,
              -148.28
            ],
            [
              124.97,
              -135.22
            ],
            [
              148.46,
              -126.22
            ],
            [
              174.17,
              -123.48
            ],
            [
              206.15,
              -128.57
            ],
            [
              246.59,
              -137.64
            ],
            [
              311.29,
              -157.63
            ],
            [
              356.86,
              -176.5
            ],
            [
              406.06,
              -202.21
            ],
            [
              445.35,
              -226.49
            ],
            [
              479.15,
              -251.81
            ],
            [
              502.26,
              -270.34
            ],
            [
              518.83,
              -285.22
            ],
            [
              527.31,
              -292.27
            ],
            [
              533.19,
              -293.84
            ],
            [
              542.85,
              -293.45
            ],
            [
              550.68,
              -290.05
            ],
            [
              554.46,
              -284.7
            ],
            [
              566.08,
              -261.6
            ],
            [
              582.26,
              -223.88
            ],
            [
              589.44,
              -206.91
            ],
            [
              591.27,
              -198.43
            ],
            [
              589.44,
              -189.55
            ],
            [
              586.18,
              -182.37
            ],
            [
              580.3,
              -178.46
            ],
            [
              574.56,
              -175.98
            ],
            [
              541.15,
              -173.5
            ],
            [
              495.08,
              -167.1
            ],
            [
              440,
              -154.84
            ],
            [
              387.92,
              -138.78
            ],
            [
              331.67,
              -115.16
            ],
            [
              294.21,
              -95.97
            ],
            [
              258.84,
              -74.31
            ],
            [
              240.04,
              -62.17
            ],
            [
              219.16,
              -46.64
            ],
            [
              202.36,
              -30.38
            ],
            [
              193.07,
              -16.77
            ],
            [
              184.77,
              1.97
            ],
            [
              179.95,
              25.58
            ],
            [
              178.85,
              43.37
            ],
            [
              182.92,
              65.05
            ],
            [
              154.64,
              57.64
            ],
            [
              59.43,
              8.81
            ],
            [
              -1.17,
              -14.61
            ],
            [
              -90.31,
              -3.19
            ],
            [
              -171.42,
              20
            ],
            [
              -201.31,
              26.43
            ]
          ]
        ]
      },
      "properties": {
        "level": "L2F",
        "zone": "airside_domestic",
        "verified": false,
        "kind": "walkable",
        "name": "",
        "nameEn": ""
      }
    }
  ]
}
