{
  "$schema": "../../../schema/regions.schema.json",
  "_comment": "★ 区域 = 隔离区标记。它【不参与寻路】—— 寻路完全由 paths.geojson 决定。",
  "_role": [
    "① 承载 zone 语义：「这片是安检后的」本质上是面，线表达不了",
    "② 判断通行线有没有画到区域外面去（E_PATH_OUTSIDE_REGION）",
    "③ 判断设施落在哪个区域上",
    "④ 供渲染着色"
  ],
  "_example": true,
  "_warning": "全部为示意几何，用于验证数据格式与校验器。必须以官方平面图为参考重绘。",
  "type": "FeatureCollection",
  "features": [
    {
      "type": "Feature",
      "id": "region-l3f-0001",
      "geometry": {
        "type": "Polygon",
        "coordinates": [
          [
            [
              -211.31,
              212.8
            ],
            [
              -211.26,
              206.82
            ],
            [
              -211.47,
              197.3
            ],
            [
              -285.33,
              144.4
            ],
            [
              -282.17,
              124.23
            ],
            [
              -233.57,
              103.88
            ],
            [
              -212.61,
              94.75
            ],
            [
              -211.91,
              78.2
            ],
            [
              -213.19,
              74.09
            ],
            [
              -208.91,
              59.77
            ],
            [
              -202.03,
              48.55
            ],
            [
              -192.25,
              38.5
            ],
            [
              -183.48,
              32.61
            ],
            [
              -170.04,
              27.06
            ],
            [
              -163.93,
              26.89
            ],
            [
              -157.66,
              30.5
            ],
            [
              -153.92,
              35.89
            ],
            [
              -156.16,
              45.66
            ],
            [
              -146.78,
              46.55
            ],
            [
              -141.55,
              36.59
            ],
            [
              -135.85,
              37.38
            ],
            [
              -135.85,
              54.66
            ],
            [
              -130.41,
              59.93
            ],
            [
              -35.67,
              19.4
            ],
            [
              -19.09,
              16.15
            ],
            [
              8.63,
              18.61
            ],
            [
              24.33,
              25.19
            ],
            [
              90.3,
              73.88
            ],
            [
              110.91,
              88.7
            ],
            [
              116.27,
              86.86
            ],
            [
              121.53,
              68.7
            ],
            [
              127.06,
              69.14
            ],
            [
              128.55,
              79.05
            ],
            [
              138.77,
              80.03
            ],
            [
              138.91,
              77.14
            ],
            [
              143.92,
              72.29
            ],
            [
              154.9,
              70.3
            ],
            [
              167.85,
              74.33
            ],
            [
              175.57,
              82.32
            ],
            [
              180.26,
              89.76
            ],
            [
              185.22,
              101.72
            ],
            [
              187.04,
              107.56
            ],
            [
              187.86,
              117.43
            ],
            [
              187.48,
              122.94
            ],
            [
              185.49,
              126.25
            ],
            [
              183.34,
              127.52
            ],
            [
              181.88,
              142.47
            ],
            [
              242.32,
              187.65
            ],
            [
              242.32,
              198
            ],
            [
              240.31,
              206.51
            ],
            [
              157.58,
              241.78
            ],
            [
              156.71,
              257.57
            ],
            [
              150.21,
              256.91
            ],
            [
              136.88,
              255.46
            ],
            [
              97.58,
              240.2
            ],
            [
              92.27,
              237.93
            ],
            [
              44.51,
              223.62
            ],
            [
              37.88,
              220.82
            ],
            [
              -84.62,
              206.07
            ],
            [
              -90.99,
              205.34
            ],
            [
              -142.87,
              208.27
            ],
            [
              -148.18,
              208.81
            ],
            [
              -185.85,
              213.97
            ],
            [
              -204.96,
              213.59
            ],
            [
              -211.31,
              212.8
            ]
          ]
        ]
      },
      "properties": {
        "level": "L3F",
        "zone": "airside_domestic",
        "verified": false,
        "kind": "walkable",
        "name": "",
        "nameEn": ""
      }
    },
    {
      "type": "Feature",
      "id": "region-l3f-0002",
      "geometry": {
        "type": "Polygon",
        "coordinates": [
          [
            [
              -329.62,
              -251.21
            ],
            [
              -342.17,
              -261
            ],
            [
              -343.6,
              -266.94
            ],
            [
              -332.7,
              -280.81
            ],
            [
              -299.69,
              -252.2
            ],
            [
              -253.03,
              -219.08
            ],
            [
              -180.74,
              -178.47
            ],
            [
              -140.24,
              -161.86
            ],
            [
              -117.14,
              -157.78
            ],
            [
              -92.49,
              -159.77
            ],
            [
              -67.95,
              -167.47
            ],
            [
              -45.06,
              -182.98
            ],
            [
              -24.26,
              -207.19
            ],
            [
              -15.46,
              -226.67
            ],
            [
              3.03,
              -280.81
            ],
            [
              14.25,
              -326.7
            ],
            [
              22.39,
              -378.96
            ],
            [
              26.36,
              -426.94
            ],
            [
              26.47,
              -462.7
            ],
            [
              22.61,
              -528.29
            ],
            [
              14.03,
              -578.58
            ],
            [
              9.52,
              -600.25
            ],
            [
              11.5,
              -611.04
            ],
            [
              18.21,
              -619.29
            ],
            [
              30.32,
              -623.14
            ],
            [
              71.47,
              -619.29
            ],
            [
              112.52,
              -613.68
            ],
            [
              125.83,
              -608.73
            ],
            [
              131.77,
              -602.34
            ],
            [
              133.64,
              -592.77
            ],
            [
              132.21,
              -583.42
            ],
            [
              115.27,
              -546.77
            ],
            [
              103.93,
              -519.7
            ],
            [
              92.6,
              -486.14
            ],
            [
              81.05,
              -443.67
            ],
            [
              71.69,
              -399.87
            ],
            [
              66.63,
              -364.55
            ],
            [
              64.21,
              -326.92
            ],
            [
              63.22,
              -282.9
            ],
            [
              65.53,
              -240.97
            ],
            [
              67.95,
              -213.02
            ],
            [
              77.3,
              -180.56
            ],
            [
              92.93,
              -157.45
            ],
            [
              114.72,
              -139.41
            ],
            [
              139.81,
              -127.74
            ],
            [
              166,
              -124.44
            ],
            [
              199.34,
              -127.41
            ],
            [
              261.95,
              -141.39
            ],
            [
              321.59,
              -160.98
            ],
            [
              384.53,
              -190.47
            ],
            [
              397.08,
              -197.62
            ],
            [
              404.01,
              -183.31
            ],
            [
              402.91,
              -178.14
            ],
            [
              399.72,
              -174.62
            ],
            [
              281.65,
              -123.78
            ],
            [
              119.34,
              -55.34
            ],
            [
              31.64,
              -19.02
            ],
            [
              12.71,
              -15.61
            ],
            [
              -2.14,
              -16.6
            ],
            [
              -18.54,
              -21.12
            ],
            [
              -38.57,
              -32.45
            ],
            [
              -329.62,
              -251.21
            ]
          ]
        ]
      },
      "properties": {
        "level": "L3F",
        "zone": "airside_intl",
        "verified": false,
        "kind": "walkable",
        "name": "",
        "nameEn": ""
      }
    },
    {
      "type": "Feature",
      "id": "region-l3f-0003",
      "geometry": {
        "type": "Polygon",
        "coordinates": [
          [
            [
              42.78,
              -595.79
            ],
            [
              42.64,
              -603.08
            ],
            [
              43.93,
              -604.59
            ],
            [
              44.87,
              -604.94
            ],
            [
              67.8,
              -602.94
            ],
            [
              66.38,
              -591.61
            ],
            [
              52.24,
              -593.17
            ],
            [
              52.47,
              -595.79
            ],
            [
              44.33,
              -596.63
            ],
            [
              44.15,
              -595.57
            ],
            [
              42.78,
              -595.79
            ]
          ]
        ]
      },
      "properties": {
        "level": "L3F",
        "zone": "airside_intl",
        "verified": false,
        "kind": "corridor",
        "name": "麦当劳",
        "nameEn": ""
      }
    }
  ]
}
