{
  "$schema": "../../schema/obstacles.schema.json",
  "_comment": "纯障碍：柱子、柜台、设备。没有名字、没有类别 —— 它们不是设施，只是从区域里扣掉的实体。",
  "_rule": "★ 障碍必须落在区域内部；通行线不得穿过它（E_PATH_CROSSES_OBSTACLE）。",
  "_example": true,
  "type": "FeatureCollection",
  "features": [
    {
      "type": "Feature",
      "id": "obs-l3f-0001",
      "geometry": {
        "type": "Polygon",
        "coordinates": [
          [
            [
              -118.76,
              139.45
            ],
            [
              -117.15,
              140.95
            ],
            [
              -117.41,
              143.6
            ],
            [
              -118.5,
              148.69
            ],
            [
              -121.2,
              152.48
            ],
            [
              -124.94,
              154.4
            ],
            [
              -128.78,
              154.97
            ],
            [
              -132.42,
              154.24
            ],
            [
              -135.07,
              152.63
            ],
            [
              -137.46,
              149.88
            ],
            [
              -142.44,
              142.56
            ],
            [
              -145.87,
              133.11
            ],
            [
              -146.75,
              127.4
            ],
            [
              -146.13,
              123.35
            ],
            [
              -143.84,
              117.95
            ],
            [
              -141.09,
              114.11
            ],
            [
              -136.83,
              111.04
            ],
            [
              -131.9,
              109.33
            ],
            [
              -126.45,
              107.98
            ],
            [
              -120.22,
              107.62
            ],
            [
              -116.74,
              108.81
            ],
            [
              -115.28,
              110.37
            ],
            [
              -114.3,
              112.65
            ],
            [
              -114.04,
              115.77
            ],
            [
              -114.76,
              121.84
            ],
            [
              -115.18,
              124.49
            ],
            [
              -117.21,
              126.67
            ],
            [
              -120.11,
              127.19
            ],
            [
              -121.93,
              126.83
            ],
            [
              -125.1,
              126.1
            ],
            [
              -127.38,
              125.53
            ],
            [
              -128.32,
              129.11
            ],
            [
              -122.19,
              130.41
            ],
            [
              -120.48,
              131.5
            ],
            [
              -119.65,
              133.84
            ],
            [
              -120.58,
              135.45
            ],
            [
              -122.5,
              136.75
            ],
            [
              -127.75,
              140.69
            ],
            [
              -125.82,
              143.6
            ],
            [
              -120.58,
              139.65
            ],
            [
              -118.76,
              139.45
            ]
          ]
        ]
      },
      "properties": {
        "level": "L3F",
        "zone": "airside_domestic",
        "verified": false,
        "kind": "void",
        "name": ""
      }
    },
    {
      "type": "Feature",
      "id": "obs-l3f-0002",
      "geometry": {
        "type": "Polygon",
        "coordinates": [
          [
            [
              -156.32,
              83.4
            ],
            [
              -149.79,
              80.19
            ],
            [
              -143.91,
              77.88
            ],
            [
              -143.57,
              79.52
            ],
            [
              -149.71,
              81.88
            ],
            [
              -146.68,
              88.67
            ],
            [
              -151.65,
              90.73
            ],
            [
              -148.81,
              97.52
            ],
            [
              -149.62,
              97.89
            ],
            [
              -152.23,
              93.02
            ],
            [
              -156.32,
              83.4
            ]
          ]
        ]
      },
      "properties": {
        "level": "L3F",
        "zone": "landside",
        "verified": false,
        "kind": "column",
        "name": ""
      }
    },
    {
      "type": "Feature",
      "id": "obs-l3f-0003",
      "geometry": {
        "type": "Polygon",
        "coordinates": [
          [
            [
              77.94,
              169.66
            ],
            [
              78.49,
              165.03
            ],
            [
              79.78,
              163.58
            ],
            [
              81.47,
              163.89
            ],
            [
              86.22,
              169.15
            ],
            [
              89.12,
              166.99
            ],
            [
              83.78,
              160.99
            ],
            [
              82.61,
              159.57
            ],
            [
              82.53,
              158.36
            ],
            [
              83,
              157.18
            ],
            [
              84.06,
              155.89
            ],
            [
              85.47,
              155.49
            ],
            [
              92.34,
              155.38
            ],
            [
              92.25,
              151.84
            ],
            [
              85.46,
              151.98
            ],
            [
              83.42,
              151.91
            ],
            [
              82.16,
              151.17
            ],
            [
              81.22,
              150.16
            ],
            [
              80.62,
              148.3
            ],
            [
              81.85,
              137.44
            ],
            [
              82.76,
              135.34
            ],
            [
              84.4,
              134.08
            ],
            [
              86.26,
              133.03
            ],
            [
              88.08,
              132.96
            ],
            [
              90.22,
              133.41
            ],
            [
              95.4,
              134.99
            ],
            [
              101.39,
              138.18
            ],
            [
              105.28,
              141.19
            ],
            [
              108.3,
              145.22
            ],
            [
              110.4,
              150.33
            ],
            [
              110.85,
              155.34
            ],
            [
              109.77,
              160.49
            ],
            [
              105.98,
              167.67
            ],
            [
              101.88,
              173.21
            ],
            [
              96.21,
              178.39
            ],
            [
              92.08,
              180.95
            ],
            [
              88.61,
              181.58
            ],
            [
              85.49,
              181.23
            ],
            [
              82.9,
              180.39
            ],
            [
              81.53,
              179.37
            ],
            [
              80.06,
              177.2
            ],
            [
              78.73,
              174.4
            ],
            [
              77.85,
              171.84
            ],
            [
              77.94,
              169.66
            ]
          ]
        ]
      },
      "properties": {
        "level": "L3F",
        "zone": "landside",
        "verified": false,
        "kind": "void",
        "name": ""
      }
    },
    {
      "type": "Feature",
      "id": "obs-l3f-0004",
      "geometry": {
        "type": "Polygon",
        "coordinates": [
          [
            [
              -95.42,
              137.64
            ],
            [
              -85.82,
              134.08
            ],
            [
              -83.31,
              113.86
            ],
            [
              -88.18,
              102.08
            ],
            [
              -75.5,
              99.95
            ],
            [
              -73.11,
              99.62
            ],
            [
              -64.65,
              98.64
            ],
            [
              -57.21,
              97.71
            ],
            [
              -50.09,
              97.64
            ],
            [
              -48.59,
              99.21
            ],
            [
              -47.97,
              101.95
            ],
            [
              -26.44,
              101.83
            ],
            [
              -11.03,
              103.37
            ],
            [
              7.46,
              106.78
            ],
            [
              20.77,
              109.97
            ],
            [
              21.62,
              107.35
            ],
            [
              23.56,
              106.7
            ],
            [
              25.15,
              107.1
            ],
            [
              27.39,
              107.75
            ],
            [
              30.73,
              108.59
            ],
            [
              45.81,
              113.87
            ],
            [
              58.9,
              119.4
            ],
            [
              61.24,
              120.69
            ],
            [
              61.64,
              122.48
            ],
            [
              61.87,
              124.84
            ],
            [
              54.76,
              123.95
            ],
            [
              51.2,
              155.44
            ],
            [
              51.91,
              155.52
            ],
            [
              51.46,
              158.66
            ],
            [
              45.31,
              157.79
            ],
            [
              45.58,
              155.4
            ],
            [
              44.94,
              155.27
            ],
            [
              45.96,
              146.62
            ],
            [
              41.39,
              146.05
            ],
            [
              40.17,
              156.95
            ],
            [
              39.7,
              160.14
            ],
            [
              42.47,
              160.39
            ],
            [
              42.42,
              161.08
            ],
            [
              42.29,
              162.95
            ],
            [
              41.05,
              162.73
            ],
            [
              40.42,
              166.72
            ],
            [
              55.01,
              168.17
            ],
            [
              49.98,
              169.91
            ],
            [
              47.6,
              169.91
            ],
            [
              38.75,
              167.01
            ],
            [
              39.43,
              163
            ],
            [
              37.04,
              162.57
            ],
            [
              37.48,
              160.11
            ],
            [
              24.51,
              158.4
            ],
            [
              24.7,
              156.65
            ],
            [
              18.47,
              155.92
            ],
            [
              2.7,
              154.02
            ],
            [
              -16.41,
              151.42
            ],
            [
              -16.88,
              154.67
            ],
            [
              -22.42,
              154.22
            ],
            [
              -21.73,
              150.97
            ],
            [
              -34.39,
              149.21
            ],
            [
              -40.9,
              148.73
            ],
            [
              -56.94,
              146.33
            ],
            [
              -60.33,
              145.66
            ],
            [
              -60.97,
              148.02
            ],
            [
              -76.4,
              146.28
            ],
            [
              -76.66,
              148.78
            ],
            [
              -78.7,
              148.63
            ],
            [
              -79.16,
              152.67
            ],
            [
              -87.63,
              153.24
            ],
            [
              -90.69,
              152.84
            ],
            [
              -94.23,
              150.3
            ],
            [
              -80.82,
              151.98
            ],
            [
              -80.28,
              148.28
            ],
            [
              -81.65,
              148.12
            ],
            [
              -81.57,
              146.18
            ],
            [
              -81.05,
              145.48
            ],
            [
              -78.54,
              145.79
            ],
            [
              -76.65,
              131.69
            ],
            [
              -81.36,
              131.17
            ],
            [
              -82.45,
              139.89
            ],
            [
              -83.07,
              139.81
            ],
            [
              -83.43,
              142.22
            ],
            [
              -89.64,
              141.52
            ],
            [
              -89.23,
              138.49
            ],
            [
              -95.42,
              137.64
            ]
          ]
        ]
      },
      "properties": {
        "level": "L3F",
        "zone": "landside",
        "verified": false,
        "kind": "blocked",
        "name": ""
      }
    },
    {
      "type": "Feature",
      "id": "obs-l3f-0005",
      "geometry": {
        "type": "Polygon",
        "coordinates": [
          [
            [
              -95.42,
              137.64
            ],
            [
              -94.79,
              133.08
            ],
            [
              -85.82,
              134.08
            ],
            [
              -95.42,
              137.64
            ]
          ]
        ]
      },
      "properties": {
        "level": "L3F",
        "zone": "landside",
        "verified": false,
        "kind": "blocked",
        "name": ""
      }
    },
    {
      "type": "Feature",
      "id": "obs-l3f-0006",
      "geometry": {
        "type": "Polygon",
        "coordinates": [
          [
            [
              -92.23,
              112.71
            ],
            [
              -91.03,
              103.59
            ],
            [
              -89.56,
              102.2
            ],
            [
              -88.13,
              102.12
            ],
            [
              -83.31,
              113.86
            ],
            [
              -92.23,
              112.71
            ]
          ]
        ]
      },
      "properties": {
        "level": "L3F",
        "zone": "landside",
        "verified": false,
        "kind": "blocked",
        "name": ""
      }
    },
    {
      "type": "Feature",
      "id": "obs-l3f-0007",
      "geometry": {
        "type": "Polygon",
        "coordinates": [
          [
            [
              -88.35,
              82.08
            ],
            [
              -87.88,
              75.17
            ],
            [
              -86.32,
              61.81
            ],
            [
              -85.15,
              54.47
            ],
            [
              -83.12,
              52.04
            ],
            [
              -35.42,
              32.93
            ],
            [
              -35.03,
              35.36
            ],
            [
              -24.37,
              33.4
            ],
            [
              -24.45,
              31.28
            ],
            [
              -17.09,
              30.74
            ],
            [
              -7.77,
              31.05
            ],
            [
              2.96,
              32.62
            ],
            [
              14.94,
              35.83
            ],
            [
              14.47,
              37.86
            ],
            [
              23.48,
              42.33
            ],
            [
              24.74,
              40.45
            ],
            [
              42.44,
              51.8
            ],
            [
              65.23,
              69.04
            ],
            [
              67.97,
              72.01
            ],
            [
              67.97,
              73.58
            ],
            [
              65.31,
              97.78
            ],
            [
              64.7,
              100.46
            ],
            [
              55.26,
              99.24
            ],
            [
              53.7,
              111.24
            ],
            [
              38.83,
              105.06
            ],
            [
              22.23,
              100.29
            ],
            [
              5.47,
              96.53
            ],
            [
              4.76,
              100.99
            ],
            [
              -13.33,
              97.55
            ],
            [
              -31.19,
              96.61
            ],
            [
              -30.56,
              91.67
            ],
            [
              -49.67,
              91.67
            ],
            [
              -69.49,
              92.92
            ],
            [
              -80.89,
              94.72
            ],
            [
              -79.21,
              83.06
            ],
            [
              -88.35,
              82.08
            ]
          ]
        ]
      },
      "properties": {
        "level": "L3F",
        "zone": "landside",
        "verified": false,
        "kind": "blocked",
        "name": ""
      }
    },
    {
      "type": "Feature",
      "id": "obs-l3f-0008",
      "geometry": {
        "type": "Polygon",
        "coordinates": [
          [
            [
              -167.85,
              137.58
            ],
            [
              -170.99,
              131.91
            ],
            [
              -195.58,
              129.01
            ],
            [
              -206.23,
              133.16
            ],
            [
              -205,
              136.94
            ],
            [
              -209.09,
              138.63
            ],
            [
              -208.07,
              141.49
            ],
            [
              -214.15,
              144.1
            ],
            [
              -216.7,
              137.71
            ],
            [
              -219.47,
              139.04
            ],
            [
              -218.93,
              140.68
            ],
            [
              -225.27,
              143.11
            ],
            [
              -226.21,
              141.39
            ],
            [
              -235.61,
              145.69
            ],
            [
              -236.94,
              146.96
            ],
            [
              -238.08,
              158.41
            ],
            [
              -237.73,
              159.74
            ],
            [
              -236.49,
              161.87
            ],
            [
              -233.68,
              157.01
            ],
            [
              -208.03,
              176.38
            ],
            [
              -202.46,
              177.52
            ],
            [
              -204.55,
              180.78
            ],
            [
              -201.61,
              183.24
            ],
            [
              -203.69,
              185.99
            ],
            [
              -199.55,
              188.72
            ],
            [
              -198.38,
              188.58
            ],
            [
              -202.31,
              179.67
            ],
            [
              -200.71,
              178.91
            ],
            [
              -201.36,
              177.49
            ],
            [
              -202.43,
              175.3
            ],
            [
              -187.53,
              169.07
            ],
            [
              -187.33,
              170.04
            ],
            [
              -186.58,
              171.52
            ],
            [
              -163.26,
              161.46
            ],
            [
              -172.44,
              139.53
            ],
            [
              -167.85,
              137.58
            ]
          ]
        ]
      },
      "properties": {
        "level": "L3F",
        "zone": "landside",
        "verified": false,
        "kind": "blocked",
        "name": ""
      }
    },
    {
      "type": "Feature",
      "id": "obs-l3f-0009",
      "geometry": {
        "type": "Polygon",
        "coordinates": [
          [
            [
              -242.15,
              155.43
            ],
            [
              -240.69,
              146.58
            ],
            [
              -245.05,
              145.67
            ],
            [
              -244.22,
              138.92
            ],
            [
              -242.37,
              138.68
            ],
            [
              -243.97,
              135.23
            ],
            [
              -243.2,
              134.76
            ],
            [
              -243.86,
              132.9
            ],
            [
              -240.51,
              131.34
            ],
            [
              -238.55,
              135.96
            ],
            [
              -237.93,
              135.74
            ],
            [
              -239.82,
              130.97
            ],
            [
              -235.1,
              128.76
            ],
            [
              -233.79,
              132.28
            ],
            [
              -235.24,
              133.08
            ],
            [
              -234.73,
              134.17
            ],
            [
              -232.3,
              133.05
            ],
            [
              -230.91,
              136.83
            ],
            [
              -227.1,
              135
            ],
            [
              -228.96,
              130.4
            ],
            [
              -225.18,
              128.62
            ],
            [
              -213.41,
              123.35
            ],
            [
              -204.21,
              119.16
            ],
            [
              -205.64,
              115.43
            ],
            [
              -209.76,
              106
            ],
            [
              -240.29,
              119.08
            ],
            [
              -242.71,
              120.9
            ],
            [
              -243.58,
              122.93
            ],
            [
              -247.31,
              151.7
            ],
            [
              -245.96,
              154.2
            ],
            [
              -242.15,
              155.43
            ]
          ]
        ]
      },
      "properties": {
        "level": "L3F",
        "zone": "landside",
        "verified": false,
        "kind": "blocked",
        "name": ""
      }
    },
    {
      "type": "Feature",
      "id": "obs-l3f-0010",
      "geometry": {
        "type": "Polygon",
        "coordinates": [
          [
            [
              128.64,
              173.53
            ],
            [
              132.92,
              168.57
            ],
            [
              156.22,
              171.5
            ],
            [
              160.27,
              172.54
            ],
            [
              166.99,
              178.25
            ],
            [
              164.5,
              181.65
            ],
            [
              168.36,
              184.24
            ],
            [
              166.43,
              186.73
            ],
            [
              171.86,
              190.65
            ],
            [
              176.24,
              185.15
            ],
            [
              192.41,
              197.18
            ],
            [
              193.28,
              198.92
            ],
            [
              191.81,
              210.67
            ],
            [
              190.67,
              213.13
            ],
            [
              188.51,
              207.88
            ],
            [
              158.44,
              220.78
            ],
            [
              152.77,
              220.71
            ],
            [
              153.84,
              224.08
            ],
            [
              150.5,
              225.95
            ],
            [
              151.65,
              229.2
            ],
            [
              147.53,
              230.59
            ],
            [
              145.95,
              230.58
            ],
            [
              152.12,
              222.66
            ],
            [
              150.82,
              221.54
            ],
            [
              151.91,
              220.14
            ],
            [
              153.24,
              218.73
            ],
            [
              146.44,
              213.44
            ],
            [
              140.52,
              208.96
            ],
            [
              138.37,
              208.21
            ],
            [
              119.46,
              194.16
            ],
            [
              132.58,
              176.68
            ],
            [
              128.64,
              173.53
            ]
          ]
        ]
      },
      "properties": {
        "level": "L3F",
        "zone": "landside",
        "verified": false,
        "kind": "blocked",
        "name": ""
      }
    },
    {
      "type": "Feature",
      "id": "obs-l3f-0011",
      "geometry": {
        "type": "Polygon",
        "coordinates": [
          [
            [
              109.73,
              123.08
            ],
            [
              106.71,
              120.95
            ],
            [
              106.89,
              115.95
            ],
            [
              108.4,
              101.47
            ],
            [
              111.07,
              103.39
            ],
            [
              109.33,
              105.61
            ],
            [
              111.64,
              108.01
            ],
            [
              113.73,
              105.39
            ],
            [
              123.82,
              112.86
            ],
            [
              121.73,
              115.61
            ],
            [
              128.45,
              120.69
            ],
            [
              120.31,
              130.64
            ],
            [
              119.51,
              129.97
            ],
            [
              121.95,
              126.99
            ],
            [
              120.93,
              126.15
            ],
            [
              122.8,
              123.92
            ],
            [
              117.73,
              120.1
            ],
            [
              120.35,
              116.72
            ],
            [
              116.8,
              114.01
            ],
            [
              109.73,
              123.08
            ]
          ]
        ]
      },
      "properties": {
        "level": "L3F",
        "zone": "landside",
        "verified": false,
        "kind": "blocked",
        "name": ""
      }
    },
    {
      "type": "Feature",
      "id": "obs-l3f-0012",
      "geometry": {
        "type": "Polygon",
        "coordinates": [
          [
            [
              176.85,
              152.93
            ],
            [
              190.61,
              163.25
            ],
            [
              194.3,
              166.04
            ],
            [
              192.65,
              167.98
            ],
            [
              195.14,
              169.97
            ],
            [
              196.98,
              167.53
            ],
            [
              204.2,
              173.8
            ],
            [
              205.4,
              176.54
            ],
            [
              202.16,
              206.06
            ],
            [
              201.21,
              207.8
            ],
            [
              197.68,
              209.29
            ],
            [
              196.64,
              208.65
            ],
            [
              197.58,
              199.44
            ],
            [
              201.56,
              199.94
            ],
            [
              202.66,
              192.97
            ],
            [
              200.58,
              192.45
            ],
            [
              203.14,
              189.49
            ],
            [
              202.27,
              188.83
            ],
            [
              203.8,
              186.82
            ],
            [
              200.84,
              184.7
            ],
            [
              197.84,
              188.83
            ],
            [
              197.04,
              188.33
            ],
            [
              200.38,
              184.22
            ],
            [
              196.21,
              181.14
            ],
            [
              193.96,
              183.96
            ],
            [
              195.21,
              185.07
            ],
            [
              194.32,
              186.13
            ],
            [
              192.31,
              184.75
            ],
            [
              189.89,
              187.8
            ],
            [
              187.54,
              185.28
            ],
            [
              184.66,
              186.46
            ],
            [
              180.97,
              183.55
            ],
            [
              186.13,
              177.49
            ],
            [
              178.87,
              172.08
            ],
            [
              174.06,
              178.36
            ],
            [
              166.01,
              172.51
            ],
            [
              164.58,
              170.08
            ],
            [
              165.97,
              167.41
            ],
            [
              168.28,
              164.39
            ],
            [
              170.16,
              161.31
            ],
            [
              176.85,
              152.93
            ]
          ]
        ]
      },
      "properties": {
        "level": "L3F",
        "zone": "landside",
        "verified": false,
        "kind": "blocked",
        "name": ""
      }
    },
    {
      "type": "Feature",
      "id": "obs-l3f-0013",
      "geometry": {
        "type": "Polygon",
        "coordinates": [
          [
            [
              -40.88,
              160.95
            ],
            [
              -54.55,
              157.42
            ],
            [
              -54.97,
              156.24
            ],
            [
              -54.35,
              154.77
            ],
            [
              -40.54,
              155.16
            ],
            [
              -39.63,
              155.81
            ],
            [
              -40.31,
              160.39
            ],
            [
              -40.88,
              160.95
            ]
          ]
        ]
      },
      "properties": {
        "level": "L3F",
        "zone": "landside",
        "verified": false,
        "kind": "void",
        "name": ""
      }
    },
    {
      "type": "Feature",
      "id": "obs-l3f-0014",
      "geometry": {
        "type": "Polygon",
        "coordinates": [
          [
            [
              -37.02,
              162.2
            ],
            [
              -37.97,
              160.9
            ],
            [
              -37.32,
              155.79
            ],
            [
              -36.36,
              155.31
            ],
            [
              -3.28,
              159.43
            ],
            [
              -2.61,
              159.85
            ],
            [
              -3.03,
              165.08
            ],
            [
              -3.82,
              166.12
            ],
            [
              -20.46,
              164.74
            ],
            [
              -37.02,
              162.2
            ]
          ]
        ]
      },
      "properties": {
        "level": "L3F",
        "zone": "landside",
        "verified": false,
        "kind": "void",
        "name": ""
      }
    },
    {
      "type": "Feature",
      "id": "obs-l3f-0015",
      "geometry": {
        "type": "Polygon",
        "coordinates": [
          [
            [
              -0.18,
              165.9
            ],
            [
              -0.88,
              165.33
            ],
            [
              -0.23,
              160.73
            ],
            [
              0.45,
              160.14
            ],
            [
              13.64,
              162.93
            ],
            [
              14.62,
              163.52
            ],
            [
              14.26,
              165.28
            ],
            [
              12.76,
              165.93
            ],
            [
              -0.18,
              165.9
            ]
          ]
        ]
      },
      "properties": {
        "level": "L3F",
        "zone": "landside",
        "verified": false,
        "kind": "void",
        "name": ""
      }
    },
    {
      "type": "Feature",
      "id": "obs-l3f-0016",
      "geometry": {
        "type": "Polygon",
        "coordinates": [
          [
            [
              -142.85,
              208.29
            ],
            [
              -146.22,
              185.49
            ],
            [
              -119.04,
              181.73
            ],
            [
              -119.98,
              176.09
            ],
            [
              -113.09,
              174.76
            ],
            [
              -112.31,
              180.32
            ],
            [
              -101.42,
              179.31
            ],
            [
              -101.5,
              173.82
            ],
            [
              -97.82,
              173.82
            ],
            [
              -96.33,
              206.01
            ],
            [
              -142.85,
              208.29
            ]
          ]
        ]
      },
      "properties": {
        "level": "L3F",
        "zone": "landside",
        "verified": false,
        "kind": "void",
        "name": ""
      }
    },
    {
      "type": "Feature",
      "id": "obs-l3f-0017",
      "geometry": {
        "type": "Polygon",
        "coordinates": [
          [
            [
              -84.68,
              206.2
            ],
            [
              -86.02,
              173.2
            ],
            [
              -71.52,
              172.81
            ],
            [
              -71.91,
              177.71
            ],
            [
              -46.88,
              178.66
            ],
            [
              -46.55,
              173.76
            ],
            [
              -39.3,
              173.76
            ],
            [
              -39.91,
              179.28
            ],
            [
              -27.65,
              180.28
            ],
            [
              -26.98,
              174.87
            ],
            [
              -16.66,
              176.15
            ],
            [
              -17.83,
              181.73
            ],
            [
              -5.96,
              183.35
            ],
            [
              -4.57,
              177.83
            ],
            [
              2.51,
              179.44
            ],
            [
              1.73,
              184.46
            ],
            [
              25.71,
              189.76
            ],
            [
              27.1,
              184.85
            ],
            [
              40.76,
              188.53
            ],
            [
              33.01,
              220.86
            ],
            [
              -84.68,
              206.2
            ]
          ]
        ]
      },
      "properties": {
        "level": "L3F",
        "zone": "landside",
        "verified": false,
        "kind": "void",
        "name": ""
      }
    },
    {
      "type": "Feature",
      "id": "obs-l3f-0018",
      "geometry": {
        "type": "Polygon",
        "coordinates": [
          [
            [
              44.27,
              223.58
            ],
            [
              51.82,
              192.68
            ],
            [
              55.76,
              193.24
            ],
            [
              53.76,
              198.11
            ],
            [
              64.63,
              202.17
            ],
            [
              66.56,
              197.11
            ],
            [
              72.68,
              199.61
            ],
            [
              70.87,
              204.1
            ],
            [
              93.41,
              213.91
            ],
            [
              95.59,
              209.1
            ],
            [
              98.9,
              210.97
            ],
            [
              86.17,
              236.51
            ],
            [
              44.27,
              223.58
            ]
          ]
        ]
      },
      "properties": {
        "level": "L3F",
        "zone": "landside",
        "verified": false,
        "kind": "void",
        "name": ""
      }
    },
    {
      "type": "Feature",
      "id": "obs-l3f-0019",
      "geometry": {
        "type": "Polygon",
        "coordinates": [
          [
            [
              96.91,
              239.82
            ],
            [
              108.58,
              216.03
            ],
            [
              111.83,
              217.22
            ],
            [
              108.77,
              221.9
            ],
            [
              112.2,
              223.71
            ],
            [
              114.83,
              219.09
            ],
            [
              118.14,
              221.21
            ],
            [
              115.64,
              225.65
            ],
            [
              136.56,
              237.82
            ],
            [
              139.36,
              233.45
            ],
            [
              145.42,
              236.88
            ],
            [
              144.49,
              256.3
            ],
            [
              137.8,
              255.49
            ],
            [
              128.38,
              252.43
            ],
            [
              96.91,
              239.82
            ]
          ]
        ]
      },
      "properties": {
        "level": "L3F",
        "zone": "landside",
        "verified": false,
        "kind": "void",
        "name": ""
      }
    },
    {
      "type": "Feature",
      "id": "obs-l3f-0020",
      "geometry": {
        "type": "Polygon",
        "coordinates": [
          [
            [
              -199.29,
              214.35
            ],
            [
              -199.3,
              206.82
            ],
            [
              -199.14,
              195.42
            ],
            [
              -192.52,
              192.93
            ],
            [
              -191.01,
              197.95
            ],
            [
              -167.32,
              191.02
            ],
            [
              -168.74,
              185.73
            ],
            [
              -165.41,
              184.93
            ],
            [
              -163.94,
              190.22
            ],
            [
              -159.94,
              189.06
            ],
            [
              -161.1,
              183.95
            ],
            [
              -158.52,
              183.37
            ],
            [
              -153.28,
              209.5
            ],
            [
              -185.14,
              213.86
            ],
            [
              -199.29,
              214.35
            ]
          ]
        ]
      },
      "properties": {
        "level": "L3F",
        "zone": "landside",
        "verified": false,
        "kind": "void",
        "name": ""
      }
    },
    {
      "type": "Feature",
      "id": "obs-l3f-0021",
      "geometry": {
        "type": "Polygon",
        "coordinates": [
          [
            [
              -2.01,
              -95.27
            ],
            [
              -1.97,
              -99.72
            ],
            [
              23.84,
              -96.37
            ],
            [
              22.88,
              -92.23
            ],
            [
              18.8,
              -92.71
            ],
            [
              18.42,
              -89.7
            ],
            [
              21.43,
              -89.04
            ],
            [
              19.59,
              -86.85
            ],
            [
              17.27,
              -84.96
            ],
            [
              13.8,
              -83.55
            ],
            [
              10.61,
              -83.21
            ],
            [
              7.67,
              -83.41
            ],
            [
              4.73,
              -84.68
            ],
            [
              2.39,
              -86.46
            ],
            [
              0.47,
              -88.6
            ],
            [
              -0.52,
              -90.19
            ],
            [
              -1.41,
              -91.79
            ],
            [
              2.32,
              -91.6
            ],
            [
              2.77,
              -94.95
            ],
            [
              -2.01,
              -95.27
            ]
          ]
        ]
      },
      "properties": {
        "level": "L3F",
        "zone": "airside_intl",
        "verified": false,
        "kind": "blocked",
        "name": ""
      }
    },
    {
      "type": "Feature",
      "id": "obs-l3f-0022",
      "geometry": {
        "type": "Polygon",
        "coordinates": [
          [
            [
              -30.28,
              -39.11
            ],
            [
              -34.24,
              -41.25
            ],
            [
              -35.12,
              -42.92
            ],
            [
              -35.26,
              -48.09
            ],
            [
              -32.97,
              -54.81
            ],
            [
              -30.99,
              -56.93
            ],
            [
              -30.17,
              -56.7
            ],
            [
              -30.94,
              -49.19
            ],
            [
              -29.13,
              -48.54
            ],
            [
              -28.9,
              -52.01
            ],
            [
              -25.63,
              -51.42
            ],
            [
              -24.69,
              -56.14
            ],
            [
              -23.56,
              -55.94
            ],
            [
              -23.2,
              -59.53
            ],
            [
              -12.11,
              -59.98
            ],
            [
              -12.59,
              -55.6
            ],
            [
              6.51,
              -54.41
            ],
            [
              23.66,
              -51.07
            ],
            [
              24.3,
              -55.6
            ],
            [
              34.96,
              -52.3
            ],
            [
              36.06,
              -51.45
            ],
            [
              34.45,
              -39.87
            ],
            [
              36.5,
              -39.99
            ],
            [
              36.82,
              -44.05
            ],
            [
              40.15,
              -43.57
            ],
            [
              40.69,
              -48.12
            ],
            [
              42.1,
              -48.03
            ],
            [
              42.75,
              -45.72
            ],
            [
              43.52,
              -41.87
            ],
            [
              43.6,
              -40.46
            ],
            [
              43.49,
              -35.86
            ],
            [
              42.72,
              -33.94
            ],
            [
              41.65,
              -32.07
            ],
            [
              39.02,
              -31.51
            ],
            [
              37.84,
              -31.34
            ],
            [
              36.68,
              -31.34
            ],
            [
              36.34,
              -37.3
            ],
            [
              36.5,
              -39.99
            ],
            [
              34.4,
              -39.87
            ],
            [
              28.28,
              -39.52
            ],
            [
              29.57,
              -47.08
            ],
            [
              25.74,
              -47.46
            ],
            [
              9.52,
              -47.93
            ],
            [
              -0.76,
              -49.1
            ],
            [
              -16.68,
              -52.64
            ],
            [
              -18.92,
              -52.83
            ],
            [
              -20.06,
              -45.12
            ],
            [
              -27.59,
              -47.71
            ],
            [
              -30.28,
              -39.11
            ]
          ]
        ]
      },
      "properties": {
        "level": "L3F",
        "zone": "airside_intl",
        "verified": false,
        "kind": "blocked",
        "name": ""
      }
    }
  ]
}
